HAWK-2C                 
1 47502U 21006CT  26068.67595434  .00008129  00000+0  25493-3 0  9997
2 47502  97.2417 114.9961 0006943 184.0877 176.0310 15.33286436284247
STARLINK-34217          
1 64488U 25133S   26068.54133732  .00028581  00000+0  97324-3 0  9995
2 64488  53.1585 117.6300 0001086  81.4506 278.6618 15.30205630 41059
